{"type": "FeatureCollection", "features": [ {"type": "Feature", "properties": {"norad_id": 31923, "name": "FENGYUN 1C DEB", "group": "fengyun-1c-debris", "lat": -79.7170277715693, "lon": -164.3552455001, "alt_km": 980.4081866624147, "timestamp": "2025-12-01T03:58:50.099701+00:00", "meta": {"OBJECT_NAME": "FENGYUN 1C DEB", "OBJECT_ID": "1999-025CMA", "EPOCH": "2025-11-27T04:43:30.487296", "MEAN_MOTION": 13.54838652, "ECCENTRICITY": 0.0299441, "INCLINATION": 98.4405, "RA_OF_ASC_NODE": 67.1712, "ARG_OF_PERICENTER": 344.5928, "MEAN_ANOMALY": 14.6245, "EPHEMERIS_TYPE": 0, "CLASSIFICATION_TYPE": "U", "NORAD_CAT_ID": 31923, "ELEMENT_SET_NO": 999, "REV_AT_EPOCH": 63424, "BSTAR": 0.0012454, "MEAN_MOTION_DOT": 1.103e-05, "MEAN_MOTION_DDOT": 0, "GROUP": "fengyun-1c-debris"}, "tle": {"line1": "1 31923U 99025CMA 25331.19688064  .00001103  00000+0  12454-2 0  9991", "line2": "2 31923  98.4405  67.1712 0299441 344.5928  14.6245 13.54838652634244"}}, "geometry": {"type": "Point", "coordinates": [-164.3552455001, -79.7170277715693]}}, {"type": "Feature", "properties": {"norad_id": 31924, "name": "FENGYUN 1C DEB", "group": "fengyun-1c-debris", "lat": 17.939450627460527, "lon": -43.18756837316062, "alt_km": 852.3900481088076, "timestamp": "2025-12-01T03:58:50.099711+00:00", "meta": {"OBJECT_NAME": "FENGYUN 1C DEB", "OBJECT_ID": "1999-025CMB", "EPOCH": "2025-11-29T21:16:44.145984", "MEAN_MOTION": 13.63852755, "ECCENTRICITY": 0.02739747, "INCLINATION": 98.4055, "RA_OF_ASC_NODE": 132.961, "ARG_OF_PERICENTER": 131.0199, "MEAN_ANOMALY": 231.4985, "EPHEMERIS_TYPE": 0, "CLASSIFICATION_TYPE": "U", "NORAD_CAT_ID": 31924, "ELEMENT_SET_NO": 999, "REV_AT_EPOCH": 91292, "BSTAR": 0.0016681575, "MEAN_MOTION_DOT": 1.674e-05, "MEAN_MOTION_DDOT": 0, "GROUP": "fengyun-1c-debris"}, "tle": {"line1": "1 31924U 99025CMB 25333.88662206  .00001674  00000+0  16682-2 0  9990", "line2": "2 31924  98.4055 132.9610 0273974 131.0199 231.4985 13.63852755912920"}}, "geometry": {"type": "Point", "coordinates": [-43.18756837316062, 17.939450627460527]}}, {"type": "Feature", "properties": {"norad_id": 31926, "name": "FENGYUN 1C DEB", "group": "fengyun-1c-debris", "lat": -26.392428034498796, "lon": 74.54676805355781, "alt_km": 777.1872402270228, "timestamp": "2025-12-01T03:58:50.099722+00:00", "meta": {"OBJECT_NAME": "FENGYUN 1C DEB", "OBJECT_ID": "1999-025CMD", "EPOCH": "2025-11-29T05:06:04.128192", "MEAN_MOTION": 14.30467051, "ECCENTRICITY": 0.00376426, "INCLINATION": 98.9592, "RA_OF_ASC_NODE": 68.0458, "ARG_OF_PERICENTER": 292.2811, "MEAN_ANOMALY": 67.4381, "EPHEMERIS_TYPE": 0, "CLASSIFICATION_TYPE": "U", "NORAD_CAT_ID": 31926, "ELEMENT_SET_NO": 999, "REV_AT_EPOCH": 95034, "BSTAR": 0.0025244286, "MEAN_MOTION_DOT": 6.582e-05, "MEAN_MOTION_DDOT": 0, "GROUP": "fengyun-1c-debris"}, "tle": {"line1": "1 31926U 99025CMD 25333.21254778  .00006582  00000+0  25244-2 0  9997", "line2": "2 31926  98.9592  68.0458 0037642 292.2811  67.4381 14.30467051950344"}}, "geometry": {"type": "Point", "coordinates": [74.54676805355781, -26.392428034498796]}}, {"type": "Feature", "properties": {"norad_id": 31929, "name": "FENGYUN 1C DEB", "group": "fengyun-1c-debris", "lat": -69.12355290023385, "lon": -99.63077005192902, "alt_km": 833.3515618189276, "timestamp": "2025-12-01T03:58:50.099732+00:00", "meta": {"OBJECT_NAME": "FENGYUN 1C DEB", "OBJECT_ID": "1999-025CME", "EPOCH": "2025-11-30T15:06:17.273376", "MEAN_MOTION": 14.34883129, "ECCENTRICITY": 0.0074571, "INCLINATION": 98.7907, "RA_OF_ASC_NODE": 103.7601, "ARG_OF_PERICENTER": 90.6854, "MEAN_ANOMALY": 270.2876, "EPHEMERIS_TYPE": 0, "CLASSIFICATION_TYPE": "U", "NORAD_CAT_ID": 31929, "ELEMENT_SET_NO": 999, "REV_AT_EPOCH": 70472, "BSTAR": 0.00051275, "MEAN_MOTION_DOT": 1.458e-05, "MEAN_MOTION_DDOT": 0, "GROUP": "fengyun-1c-debris"}, "tle": {"line1": "1 31929U 99025CME 25334.62936659  .00001458  00000+0  51275-3 0  9992", "line2": "2 31929  98.7907 103.7601 0074571  90.6854 270.2876 14.34883129704725"}}, "geometry": {"type": "Point", "coordinates": [-99.63077005192902, -69.12355290023385]}}, {"type": "Feature", "properties": {"norad_id": 31931, "name": "FENGYUN 1C DEB", "group": "fengyun-1c-debris", "lat": -50.498349427728094, "lon": 98.61187893633706, "alt_km": 980.2062076019056, "timestamp": "2025-12-01T03:58:50.099742+00:00", "meta": {"OBJECT_NAME": "FENGYUN 1C DEB", "OBJECT_ID": "1999-025CMG", "EPOCH": "2025-11-29T15:01:11.001792", "MEAN_MOTION": 13.42573105, "ECCENTRICITY": 0.04238127, "INCLINATION": 97.8116, "RA_OF_ASC_NODE": 286.9992, "ARG_OF_PERICENTER": 303.833, "MEAN_ANOMALY": 52.3139, "EPHEMERIS_TYPE": 0, "CLASSIFICATION_TYPE": "U", "NORAD_CAT_ID": 31931, "ELEMENT_SET_NO": 999, "REV_AT_EPOCH": 65046, "BSTAR": 0.0011512154, "MEAN_MOTION_DOT": 1.079e-05, "MEAN_MOTION_DDOT": 0, "GROUP": "fengyun-1c-debris"}, "tle": {"line1": "1 31931U 99025CMG 25333.62582178  .00001079  00000+0  11512-2 0  9995", "line2": "2 31931  97.8116 286.9992 0423812 303.8330  52.3139 13.42573105650461"}}, "geometry": {"type": "Point", "coordinates": [98.61187893633706, -50.498349427728094]}}, {"type": "Feature", "properties": {"norad_id": 31934, "name": "FENGYUN 1C DEB", "group": "fengyun-1c-debris", "lat": -14.571568837051853, "lon": -159.57613614988205, "alt_km": 549.5584527468163, "timestamp": "2025-12-01T03:58:50.099753+00:00", "meta": {"OBJECT_NAME": "FENGYUN 1C DEB", "OBJECT_ID": "1999-025CMK", "EPOCH": "2025-11-29T09:37:45.625728", "MEAN_MOTION": 15.04993141, "ECCENTRICITY": 0.00388596, "INCLINATION": 98.8848, "RA_OF_ASC_NODE": 20.726, "ARG_OF_PERICENTER": 277.1754, "MEAN_ANOMALY": 82.5051, "EPHEMERIS_TYPE": 0, "CLASSIFICATION_TYPE": "U", "NORAD_CAT_ID": 31934, "ELEMENT_SET_NO": 999, "REV_AT_EPOCH": 60642, "BSTAR": 0.0026275436, "MEAN_MOTION_DOT": 0.00038009, "MEAN_MOTION_DDOT": 0, "GROUP": "fengyun-1c-debris"}, "tle": {"line1": "1 31934U 99025CMK 25333.40122252  .00038009  00000+0  26275-2 0  9992", "line2": "2 31934  98.8848  20.7260 0038859 277.1754  82.5051 15.04993141606426"}}, "geometry": {"type": "Point", "coordinates": [-159.57613614988205, -14.571568837051853]}}, {"type": "Feature", "properties": {"norad_id": 31937, "name": "FENGYUN 1C DEB", "group": "fengyun-1c-debris", "lat": -36.50792484905251, "lon": 69.96810176638995, "alt_km": 529.4368742830702, "timestamp": "2025-12-01T03:58:50.099763+00:00", "meta": {"OBJECT_NAME": "FENGYUN 1C DEB", "OBJECT_ID": "1999-025CMN", "EPOCH": "2025-11-26T12:01:33.020832", "MEAN_MOTION": 14.77838011, "ECCENTRICITY": 0.01636813, "INCLINATION": 99.2557, "RA_OF_ASC_NODE": 57.6811, "ARG_OF_PERICENTER": 348.1792, "MEAN_ANOMALY": 11.5591, "EPHEMERIS_TYPE": 0, "CLASSIFICATION_TYPE": "U", "NORAD_CAT_ID": 31937, "ELEMENT_SET_NO": 999, "REV_AT_EPOCH": 65829, "BSTAR": 0.00071286453, "MEAN_MOTION_DOT": 6.334e-05, "MEAN_MOTION_DDOT": 0, "GROUP": "fengyun-1c-debris"}, "tle": {"line1": "1 31937U 99025CMN 25330.50107663  .00006334  00000+0  71286-3 0  9991", "line2": "2 31937  99.2557  57.6811 0163681 348.1792  11.5591 14.77838011658291"}}, "geometry": {"type": "Point", "coordinates": [69.96810176638995, -36.50792484905251]}}, {"type": "Feature", "properties": {"norad_id": 31938, "name": "FENGYUN 1C DEB", "group": "fengyun-1c-debris", "lat": -80.94478888951288, "lon": 104.27340526823183, "alt_km": 691.8728085226894, "timestamp": "2025-12-01T03:58:50.099774+00:00", "meta": {"OBJECT_NAME": "FENGYUN 1C DEB", "OBJECT_ID": "1999-025CMP", "EPOCH": "2025-11-30T01:05:55.960512", "MEAN_MOTION": 14.95405645, "ECCENTRICITY": 0.01539142, "INCLINATION": 98.9326, "RA_OF_ASC_NODE": 3.7169, "ARG_OF_PERICENTER": 106.8854, "MEAN_ANOMALY": 254.9304, "EPHEMERIS_TYPE": 0, "CLASSIFICATION_TYPE": "U", "NORAD_CAT_ID": 31938, "ELEMENT_SET_NO": 999, "REV_AT_EPOCH": 98946, "BSTAR": 0.00051566199, "MEAN_MOTION_DOT": 7.15e-05, "MEAN_MOTION_DDOT": 0, "GROUP": "fengyun-1c-debris"}, "tle": {"line1": "1 31938U 99025CMP 25334.04578658  .00007150  00000+0  51566-3 0  9997", "line2": "2 31938  98.9326   3.7169 0153914 106.8854 254.9304 14.95405645989460"}}, "geometry": {"type": "Point", "coordinates": [104.27340526823183, -80.94478888951288]}}, {"type": "Feature", "properties": {"norad_id": 31944, "name": "FENGYUN 1C DEB", "group": "fengyun-1c-debris", "lat": 19.175364563585, "lon": 119.1358177085415, "alt_km": 748.1453888724263, "timestamp": "2025-12-01T03:58:50.099784+00:00", "meta": {"OBJECT_NAME": "FENGYUN 1C DEB", "OBJECT_ID": "1999-025CMV", "EPOCH": "2025-11-28T16:24:32.857632", "MEAN_MOTION": 14.11747378, "ECCENTRICITY": 0.01521081, "INCLINATION": 99.2021, "RA_OF_ASC_NODE": 119.8216, "ARG_OF_PERICENTER": 43.5141, "MEAN_ANOMALY": 328.4815, "EPHEMERIS_TYPE": 0, "CLASSIFICATION_TYPE": "U", "NORAD_CAT_ID": 31944, "ELEMENT_SET_NO": 999, "REV_AT_EPOCH": 62712, "BSTAR": 0.00059362506, "MEAN_MOTION_DOT": 1.16e-05, "MEAN_MOTION_DDOT": 0, "GROUP": "fengyun-1c-debris"}, "tle": {"line1": "1 31944U 99025CMV 25332.68371363  .00001160  00000+0  59363-3 0  9994", "line2": "2 31944  99.2021 119.8216 0152108  43.5141 328.4815 14.11747378627121"}}, "geometry": {"type": "Point", "coordinates": [119.1358177085415, 19.175364563585]}}]}